[{"OBJECT_NAME":"STARLINK-35389","OBJECT_ID":"2025-259N","EPOCH":"2026-03-09T22:40:12.194976","MEAN_MOTION":15.27589011,"ECCENTRICITY":0.00012827,"INCLINATION":43.0018,"RA_OF_ASC_NODE":272.6129,"ARG_OF_PERICENTER":244.3202,"MEAN_ANOMALY":115.7517,"EPHEMERIS_TYPE":0,"CLASSIFICATION_TYPE":"U","NORAD_CAT_ID":66434,"ELEMENT_SET_NO":999,"REV_AT_EPOCH":1953,"BSTAR":0.00091652927,"MEAN_MOTION_DOT":0.00025051,"MEAN_MOTION_DDOT":0},{"OBJECT_NAME":"CZ-2C DEB","OBJECT_ID":"2026-009C","EPOCH":"2026-03-09T19:20:16.840608","MEAN_MOTION":15.15876918,"ECCENTRICITY":0.01015815,"INCLINATION":97.2202,"RA_OF_ASC_NODE":140.8028,"ARG_OF_PERICENTER":36.3959,"MEAN_ANOMALY":324.4125,"EPHEMERIS_TYPE":0,"CLASSIFICATION_TYPE":"U","NORAD_CAT_ID":67586,"ELEMENT_SET_NO":999,"REV_AT_EPOCH":810,"BSTAR":0.0025681251,"MEAN_MOTION_DOT":0.0005635,"MEAN_MOTION_DDOT":0}]
